BEIDOU-3 M14            
1 43623U 18072B   26132.96216037 -.00000032  00000+0  00000+0 0  9998
2 43623  56.5971  63.8160 0006643 346.6711  13.2952  1.86231517 51994
BEIDOU-3 M16            
1 43647U 18078A   26132.58110638 -.00000042  00000+0  00000+0 0  9999
2 43647  54.1235 301.2337 0007880  39.7391 320.3068  1.86232272 51494
BEIDOU-3 M15            
1 43648U 18078B   26132.71039991 -.00000043  00000+0  00000+0 0  9998
2 43648  54.1193 301.2299 0005041  52.0835 307.9498  1.86232596 51513
BEIDOU-3 G1             
1 43683U 18085A   26133.49508759 -.00000093  00000+0  00000+0 0  9999
2 43683   2.9858  98.2895 0007544 339.2426 131.9439  1.00272663 27712
BEIDOU-3 M17            
1 43706U 18093A   26131.35359073  .00000068  00000+0  00000+0 0  9991
2 43706  54.1670 183.5464 0009480 290.8488 131.5748  1.86228417 50852
BEIDOU-3 M18            
1 43707U 18093B   26132.73439434  .00000084  00000+0  00000+0 0  9993
2 43707  54.1678 183.4917 0007397 321.8656  38.1678  1.86226542 50873
BEIDOU-3 IGSO-1         
1 44204U 19023A   26131.75131156 -.00000223  00000+0  00000+0 0  9997
2 44204  58.6454  38.0276 0023914 234.3447 343.0032  1.00250952  6847
BEIDOU-2 G8             
1 44231U 19027A   26133.49197565 -.00000233  00000+0  00000+0 0  9991
2 44231   1.5695  74.4188 0010874 281.8238 196.6531  1.00273168 25732
BEIDOU-3 IGSO-2         
1 44337U 19035A   26132.65390358 -.00000046  00000+0  00000+0 0  9991
2 44337  55.2385 159.1745 0039680 215.7907 210.7620  1.00277740 25317
BEIDOU-3 M24            
1 44542U 19061A   26133.34045131  .00000090  00000+0  00000+0 0  9999
2 44542  54.3947 183.9035 0008074   2.8226 357.2705  1.86229288 45140
BEIDOU-3 M23            
1 44543U 19061B   26131.34946017  .00000067  00000+0  00000+0 0  9995
2 44543  54.3931 183.9390 0005138 344.4737  32.5944  1.86227672 45118
BEIDOU-3 IGSO-3         
1 44709U 19073A   26120.85038409 -.00000212  00000+0  00000+0 0  9996
2 44709  54.8842 281.4069 0042404 188.8195 170.9972  1.00251230 23982
BEIDOU-3 M22            
1 44793U 19078A   26133.17974512 -.00000045  00000+0  00000+0 0  9991
2 44793  53.9692 301.0593 0007149  47.6212 312.4253  1.86227473 43992
BEIDOU-3 M21            
1 44794U 19078B   26130.09800295 -.00000037  00000+0  00000+0 0  9997
2 44794  53.9450 301.1295 0004992  44.9662 315.0658  1.86228028 43947
BEIDOU-3 M19            
1 44864U 19090A   26128.49025716 -.00000021  00000+0  00000+0 0  9990
2 44864  56.5258  64.1028 0019338 296.1784 262.9647  1.86231851 43492
BEIDOU-3 M20            
1 44865U 19090B   26132.62828494 -.00000030  00000+0  00000+0 0  9995
2 44865  56.5307  64.0010 0016968 309.0704 234.0077  1.86231636 43555
BEIDOU-3 G2             
1 45344U 20017A   26133.47914894 -.00000127  00000+0  00000+0 0  9990
2 45344   2.7940  46.7881 0002632   9.5146  67.4807  1.00272634 22917
BEIDOU-3 G3             
1 45807U 20040A   26133.48521563 -.00000340  00000+0  00000+0 0  9995
2 45807   2.3616  67.3456 0003350 333.8195 115.2887  1.00275230 21722
BEIDOU-3 G4             
1 56564U 23066A   26133.34847302 -.00000270  00000+0  00000+0 0  9997
2 56564   0.5332 323.1662 0003490 161.2314  12.1224  1.00265956 11040
BEIDOU-3 M28            
1 58654U 23207A   26132.32302171 -.00000030  00000+0  00000+0 0  9997
2 58654  55.7225  63.5128 0004245 330.2096  29.7521  1.86229701 16176
BEIDOU-3 M26            
1 58655U 23207B   26133.19442947 -.00000035  00000+0  00000+0 0  9995
2 58655  55.7254  63.4698 0004440 309.9191  50.0256  1.86229669 16171
BEIDOU-3 M25            
1 61186U 24168B   26132.49273970 -.00000042  00000+0  00000+0 0  9993
2 61186  54.5066 303.4829 0003136 313.6344  53.1046  1.86230066 11122
BEIDOU-3 M27            
1 61187U 24168C   26133.36745760 -.00000045  00000+0  00000+0 0  9995
2 61187  54.5014 303.4354 0002241  43.5716 324.6381  1.86230101  8615
